[{"OBJECT_NAME":"AMAZONIA 1","OBJECT_ID":"2021-015A","EPOCH":"2026-03-09T17:05:01.705920","MEAN_MOTION":14.40836291,"ECCENTRICITY":0.00039353,"INCLINATION":98.4264,"RA_OF_ASC_NODE":142.7385,"ARG_OF_PERICENTER":123.8493,"MEAN_ANOMALY":236.3071,"EPHEMERIS_TYPE":0,"CLASSIFICATION_TYPE":"U","NORAD_CAT_ID":47699,"ELEMENT_SET_NO":999,"REV_AT_EPOCH":26432,"BSTAR":0.00010973552,"MEAN_MOTION_DOT":3.08e-6,"MEAN_MOTION_DDOT":0},{"OBJECT_NAME":"FENGYUN 1C DEB","OBJECT_ID":"1999-025ABG","EPOCH":"2026-03-09T17:16:19.634016","MEAN_MOTION":14.42941111,"ECCENTRICITY":0.00140423,"INCLINATION":98.9113,"RA_OF_ASC_NODE":136.9935,"ARG_OF_PERICENTER":350.4225,"MEAN_ANOMALY":9.6694,"EPHEMERIS_TYPE":0,"CLASSIFICATION_TYPE":"U","NORAD_CAT_ID":30345,"ELEMENT_SET_NO":999,"REV_AT_EPOCH":99027,"BSTAR":0.0018523438,"MEAN_MOTION_DOT":6.159e-5,"MEAN_MOTION_DDOT":0}]
